{
  "type": "FeatureCollection",
  "features": [
    {
      "type": "Feature",
      "properties": {
        "norad_id": 27954,
        "name": "GALAXY 13 (HORIZONS-1)",
        "group": "intelsat",
        "lat": -0.7607759555134388,
        "lon": 27.04841781913918,
        "alt_km": 35792.794314749124,
        "timestamp": "2025-12-03T06:58:42.908742+00:00",
        "meta_object_name": "GALAXY 13 (HORIZONS-1)",
        "meta_object_id": "2003-044A",
        "meta_epoch": "2025-12-02T16:29:43.335168",
        "meta_mean_motion": 1.00272205,
        "meta_eccentricity": 0.0002077,
        "meta_inclination": 0.9096,
        "meta_ra_of_asc_node": 86.5934,
        "meta_arg_of_pericenter": 159.8177,
        "meta_mean_anomaly": 282.7994,
        "meta_ephemeris_type": 0,
        "meta_classification_type": "U",
        "meta_norad_cat_id": 27954,
        "meta_element_set_no": 999,
        "meta_rev_at_epoch": 4460,
        "meta_bstar": 0,
        "meta_mean_motion_dot": 1.53e-06,
        "meta_mean_motion_ddot": 0,
        "tle_line1": "1 27954U 03044A   25336.68730712  .00000153  00000+0  00000+0 0  9998",
        "tle_line2": "2 27954   0.9096  86.5934 0002077 159.8177 282.7994  1.00272205 44606"
      },
      "geometry": {
        "type": "Point",
        "coordinates": [
          27.04841781913918,
          -0.7607759555134388
        ]
      }
    },
    {
      "type": "Feature",
      "properties": {
        "norad_id": 28358,
        "name": "INTELSAT 10-02",
        "group": "intelsat",
        "lat": 0.008364321639761878,
        "lon": 176.03044704635116,
        "alt_km": 35787.25118113301,
        "timestamp": "2025-12-03T06:58:42.908761+00:00",
        "meta_object_name": "INTELSAT 10-02",
        "meta_object_id": "2004-022A",
        "meta_epoch": "2025-12-02T17:12:16.756704",
        "meta_mean_motion": 1.00271024,
        "meta_eccentricity": 0.0001116,
        "meta_inclination": 0.0394,
        "meta_ra_of_asc_node": 86.4631,
        "meta_arg_of_pericenter": 191.795,
        "meta_mean_anomaly": 50.6376,
        "meta_ephemeris_type": 0,
        "meta_classification_type": "U",
        "meta_norad_cat_id": 28358,
        "meta_element_set_no": 999,
        "meta_rev_at_epoch": 7858,
        "meta_bstar": 0,
        "meta_mean_motion_dot": 9e-08,
        "meta_mean_motion_ddot": 0,
        "tle_line1": "1 28358U 04022A   25336.71686061  .00000009  00000+0  00000+0 0  9995",
        "tle_line2": "2 28358   0.0394  86.4631 0001116 191.7950  50.6376  1.00271024 78585"
      },
      "geometry": {
        "type": "Point",
        "coordinates": [
          176.03044704635116,
          0.008364321639761878
        ]
      }
    },
    {
      "type": "Feature",
      "properties": {
        "norad_id": 28626,
        "name": "XM-3 (RHYTHM)",
        "group": "intelsat",
        "lat": -0.13259908869220616,
        "lon": -23.83079706423693,
        "alt_km": 36155.73502519062,
        "timestamp": "2025-12-03T06:58:42.908788+00:00",
        "meta_object_name": "XM-3 (RHYTHM)",
        "meta_object_id": "2005-008A",
        "meta_epoch": "2025-12-02T19:08:10.315104",
        "meta_mean_motion": 0.98955046,
        "meta_eccentricity": 8.64e-05,
        "meta_inclination": 0.1467,
        "meta_ra_of_asc_node": 80.743,
        "meta_arg_of_pericenter": 265.9206,
        "meta_mean_anomaly": 173.7506,
        "meta_ephemeris_type": 0,
        "meta_classification_type": "U",
        "meta_norad_cat_id": 28626,
        "meta_element_set_no": 999,
        "meta_rev_at_epoch": 4065,
        "meta_bstar": 0,
        "meta_mean_motion_dot": -2.32e-06,
        "meta_mean_motion_ddot": 0,
        "tle_line1": "1 28626U 05008A   25336.79734161 -.00000232  00000+0  00000+0 0  9990",
        "tle_line2": "2 28626   0.1467  80.7430 0000864 265.9206 173.7506  0.98955046 40654"
      },
      "geometry": {
        "type": "Point",
        "coordinates": [
          -23.83079706423693,
          -0.13259908869220616
        ]
      }
    },
    {
      "type": "Feature",
      "properties": {
        "norad_id": 28659,
        "name": "DIRECTV 8",
        "group": "intelsat",
        "lat": 0.034823009779806215,
        "lon": 58.01177258286022,
        "alt_km": 35799.029416401296,
        "timestamp": "2025-12-03T06:58:42.908804+00:00",
        "meta_object_name": "DIRECTV 8",
        "meta_object_id": "2005-019A",
        "meta_epoch": "2025-12-02T16:38:34.986336",
        "meta_mean_motion": 1.00271261,
        "meta_eccentricity": 0.0003256,
        "meta_inclination": 0.0138,
        "meta_ra_of_asc_node": 300.7015,
        "meta_arg_of_pericenter": 318.9289,
        "meta_mean_anomaly": 302.7729,
        "meta_ephemeris_type": 0,
        "meta_classification_type": "U",
        "meta_norad_cat_id": 28659,
        "meta_element_set_no": 999,
        "meta_rev_at_epoch": 7510,
        "meta_bstar": 0,
        "meta_mean_motion_dot": 2.1e-07,
        "meta_mean_motion_ddot": 0,
        "tle_line1": "1 28659U 05019A   25336.69346049  .00000021  00000+0  00000+0 0  9996",
        "tle_line2": "2 28659   0.0138 300.7015 0003256 318.9289 302.7729  1.00271261 75109"
      },
      "geometry": {
        "type": "Point",
        "coordinates": [
          58.01177258286022,
          0.034823009779806215
        ]
      }
    },
    {
      "type": "Feature",
      "properties": {
        "norad_id": 28702,
        "name": "GALAXY 28 (G-28)",
        "group": "intelsat",
        "lat": 0.359170068270964,
        "lon": 88.33099065424027,
        "alt_km": 35796.146444959435,
        "timestamp": "2025-12-03T06:58:42.908817+00:00",
        "meta_object_name": "GALAXY 28 (G-28)",
        "meta_object_id": "2005-022A",
        "meta_epoch": "2025-12-02T15:04:30.482112",
        "meta_mean_motion": 1.00275862,
        "meta_eccentricity": 0.0002732,
        "meta_inclination": 2.7928,
        "meta_ra_of_asc_node": 81.3976,
        "meta_arg_of_pericenter": 172.5506,
        "meta_mean_anomaly": 315.2072,
        "meta_ephemeris_type": 0,
        "meta_classification_type": "U",
        "meta_norad_cat_id": 28702,
        "meta_element_set_no": 999,
        "meta_rev_at_epoch": 5000,
        "meta_bstar": 0,
        "meta_mean_motion_dot": -1.68e-06,
        "meta_mean_motion_ddot": 0,
        "tle_line1": "1 28702U 05022A   25336.62813058 -.00000168  00000+0  00000+0 0  9994",
        "tle_line2": "2 28702   2.7928  81.3976 0002732 172.5506 315.2072  1.00275862 50009"
      },
      "geometry": {
        "type": "Point",
        "coordinates": [
          88.33099065424027,
          0.359170068270964
        ]
      }
    },
    {
      "type": "Feature",
      "properties": {
        "norad_id": 29236,
        "name": "GALAXY 16 (G-16)",
        "group": "intelsat",
        "lat": 0.0056607611241853446,
        "lon": 78.02280091739999,
        "alt_km": 35798.61503689901,
        "timestamp": "2025-12-03T06:58:42.908829+00:00",
        "meta_object_name": "GALAXY 16 (G-16)",
        "meta_object_id": "2006-023A",
        "meta_epoch": "2025-12-02T15:01:30.769248",
        "meta_mean_motion": 1.00270217,
        "meta_eccentricity": 0.000286,
        "meta_inclination": 0.0253,
        "meta_ra_of_asc_node": 222.4549,
        "meta_arg_of_pericenter": 30.7151,
        "meta_mean_anomaly": 304.9296,
        "meta_ephemeris_type": 0,
        "meta_classification_type": "U",
        "meta_norad_cat_id": 29236,
        "meta_element_set_no": 999,
        "meta_rev_at_epoch": 7100,
        "meta_bstar": 0,
        "meta_mean_motion_dot": -1.06e-06,
        "meta_mean_motion_ddot": 0,
        "tle_line1": "1 29236U 06023A   25336.62605057 -.00000106  00000+0  00000+0 0  9999",
        "tle_line2": "2 29236   0.0253 222.4549 0002860  30.7151 304.9296  1.00270217 71006"
      },
      "geometry": {
        "type": "Point",
        "coordinates": [
          78.02280091739999,
          0.0056607611241853446
        ]
      }
    },
    {
      "type": "Feature",
      "properties": {
        "norad_id": 29494,
        "name": "DIRECTV 9S",
        "group": "intelsat",
        "lat": -0.2253823926886912,
        "lon": 75.83457254824027,
        "alt_km": 35799.75552719325,
        "timestamp": "2025-12-03T06:58:42.908841+00:00",
        "meta_object_name": "DIRECTV 9S",
        "meta_object_id": "2006-043A",
        "meta_epoch": "2025-12-02T13:18:12.791808",
        "meta_mean_motion": 1.0027065,
        "meta_eccentricity": 0.00031569,
        "meta_inclination": 1.9116,
        "meta_ra_of_asc_node": 83.3175,
        "meta_arg_of_pericenter": 166.855,
        "meta_mean_anomaly": 279.8371,
        "meta_ephemeris_type": 0,
        "meta_classification_type": "U",
        "meta_norad_cat_id": 29494,
        "meta_element_set_no": 999,
        "meta_rev_at_epoch": 4941,
        "meta_bstar": 0,
        "meta_mean_motion_dot": -9.3e-07,
        "meta_mean_motion_ddot": 0,
        "tle_line1": "1 29494U 06043A   25336.55431472 -.00000093  00000+0  00000+0 0  9992",
        "tle_line2": "2 29494   1.9116  83.3175 0003156 166.8550 279.8371  1.00270650 49417"
      },
      "geometry": {
        "type": "Point",
        "coordinates": [
          75.83457254824027,
          -0.2253823926886912
        ]
      }
    }
  ]
}